{"type": "FeatureCollection", "features": [ {"type": "Feature", "properties": {"norad_id": 36045, "name": "COSMOS 2251 DEB", "group": "cosmos-2251-debris", "lat": 58.42835276762933, "lon": -140.76918265991597, "alt_km": 627.6041751983812, "timestamp": "2025-12-08T10:52:03.345417+00:00", "meta": {"OBJECT_NAME": "COSMOS 2251 DEB", "OBJECT_ID": "1993-036AXG", "EPOCH": "2025-12-06T12:35:46.842144", "MEAN_MOTION": 14.69624154, "ECCENTRICITY": 0.00486216, "INCLINATION": 73.7645, "RA_OF_ASC_NODE": 71.3331, "ARG_OF_PERICENTER": 87.3165, "MEAN_ANOMALY": 273.3569, "EPHEMERIS_TYPE": 0, "CLASSIFICATION_TYPE": "U", "NORAD_CAT_ID": 36045, "ELEMENT_SET_NO": 999, "REV_AT_EPOCH": 8297, "BSTAR": 0.0044051955, "MEAN_MOTION_DOT": 0.00026747, "MEAN_MOTION_DDOT": 0}, "tle": {"line1": "1 36045U 93036AXG 25340.52484771  .00026747  00000+0  44052-2 0  9993", "line2": "2 36045  73.7645  71.3331 0048621  87.3165 273.3569 14.69624154 82974"}}, "geometry": {"type": "Point", "coordinates": [-140.76918265991597, 58.42835276762933]}}, {"type": "Feature", "properties": {"norad_id": 36046, "name": "COSMOS 2251 DEB", "group": "cosmos-2251-debris", "lat": -62.84712997855297, "lon": 138.73125869330133, "alt_km": 722.165474551819, "timestamp": "2025-12-08T10:52:03.345427+00:00", "meta": {"OBJECT_NAME": "COSMOS 2251 DEB", "OBJECT_ID": "1993-036AXH", "EPOCH": "2025-12-07T14:53:37.140000", "MEAN_MOTION": 14.65217113, "ECCENTRICITY": 0.00554066, "INCLINATION": 74.0172, "RA_OF_ASC_NODE": 286.36, "ARG_OF_PERICENTER": 73.7608, "MEAN_ANOMALY": 105.7765, "EPHEMERIS_TYPE": 0, "CLASSIFICATION_TYPE": "U", "NORAD_CAT_ID": 36046, "ELEMENT_SET_NO": 999, "REV_AT_EPOCH": 63928, "BSTAR": 0.0010874052, "MEAN_MOTION_DOT": 5.963e-05, "MEAN_MOTION_DDOT": 0}, "tle": {"line1": "1 36046U 93036AXH 25341.62056875  .00005963  00000+0  10874-2 0  9998", "line2": "2 36046  74.0172 286.3600 0055406  73.7608 105.7765 14.65217113639288"}}, "geometry": {"type": "Point", "coordinates": [138.73125869330133, -62.84712997855297]}}, {"type": "Feature", "properties": {"norad_id": 36047, "name": "COSMOS 2251 DEB", "group": "cosmos-2251-debris", "lat": 63.39558255676233, "lon": 17.671473613904727, "alt_km": 571.0354353375842, "timestamp": "2025-12-08T10:52:03.345437+00:00", "meta": {"OBJECT_NAME": "COSMOS 2251 DEB", "OBJECT_ID": "1993-036AXJ", "EPOCH": "2025-12-07T07:16:20.320608", "MEAN_MOTION": 14.95604357, "ECCENTRICITY": 0.00080307, "INCLINATION": 74.0361, "RA_OF_ASC_NODE": 345.134, "ARG_OF_PERICENTER": 10.1198, "MEAN_ANOMALY": 350.0147, "EPHEMERIS_TYPE": 0, "CLASSIFICATION_TYPE": "U", "NORAD_CAT_ID": 36047, "ELEMENT_SET_NO": 999, "REV_AT_EPOCH": 65858, "BSTAR": 0.0028046343, "MEAN_MOTION_DOT": 0.00031273, "MEAN_MOTION_DDOT": 0}, "tle": {"line1": "1 36047U 93036AXJ 25341.30301297  .00031273  00000+0  28046-2 0  9998", "line2": "2 36047  74.0361 345.1340 0008030  10.1198 350.0147 14.95604357658580"}}, "geometry": {"type": "Point", "coordinates": [17.671473613904727, 63.39558255676233]}}, {"type": "Feature", "properties": {"norad_id": 36048, "name": "COSMOS 2251 DEB", "group": "cosmos-2251-debris", "lat": 8.356994150266193, "lon": 124.76230279882176, "alt_km": 785.8150558164252, "timestamp": "2025-12-08T10:52:03.345447+00:00", "meta": {"OBJECT_NAME": "COSMOS 2251 DEB", "OBJECT_ID": "1993-036AXK", "EPOCH": "2025-12-07T14:36:21.153024", "MEAN_MOTION": 14.37837835, "ECCENTRICITY": 0.0026381, "INCLINATION": 74.0564, "RA_OF_ASC_NODE": 308.721, "ARG_OF_PERICENTER": 359.8811, "MEAN_ANOMALY": 123.0746, "EPHEMERIS_TYPE": 0, "CLASSIFICATION_TYPE": "U", "NORAD_CAT_ID": 36048, "ELEMENT_SET_NO": 999, "REV_AT_EPOCH": 85428, "BSTAR": 0.00053688465, "MEAN_MOTION_DOT": 1.599e-05, "MEAN_MOTION_DDOT": 0}, "tle": {"line1": "1 36048U 93036AXK 25341.60857816  .00001599  00000+0  53688-3 0  9994", "line2": "2 36048  74.0564 308.7210 0026381 359.8811 123.0746 14.37837835854284"}}, "geometry": {"type": "Point", "coordinates": [124.76230279882176, 8.356994150266193]}}, {"type": "Feature", "properties": {"norad_id": 36049, "name": "COSMOS 2251 DEB", "group": "cosmos-2251-debris", "lat": -72.7486461771669, "lon": 14.63779619508995, "alt_km": 688.6074160191729, "timestamp": "2025-12-08T10:52:03.345457+00:00", "meta": {"OBJECT_NAME": "COSMOS 2251 DEB", "OBJECT_ID": "1993-036AXL", "EPOCH": "2025-12-06T10:02:31.964064", "MEAN_MOTION": 14.62007572, "ECCENTRICITY": 0.00110936, "INCLINATION": 74.0303, "RA_OF_ASC_NODE": 131.2879, "ARG_OF_PERICENTER": 216.0889, "MEAN_ANOMALY": 143.953, "EPHEMERIS_TYPE": 0, "CLASSIFICATION_TYPE": "U", "NORAD_CAT_ID": 36049, "ELEMENT_SET_NO": 999, "REV_AT_EPOCH": 85272, "BSTAR": 0.0027130423, "MEAN_MOTION_DOT": 0.00013616, "MEAN_MOTION_DDOT": 0}, "tle": {"line1": "1 36049U 93036AXL 25340.41842551  .00013616  00000+0  27130-2 0  9998", "line2": "2 36049  74.0303 131.2879 0011093 216.0889 143.9530 14.62007572852723"}}, "geometry": {"type": "Point", "coordinates": [14.63779619508995, -72.7486461771669]}}, {"type": "Feature", "properties": {"norad_id": 36050, "name": "COSMOS 2251 DEB", "group": "cosmos-2251-debris", "lat": 73.25853667429617, "lon": -49.416497686845865, "alt_km": 617.7305011221251, "timestamp": "2025-12-08T10:52:03.345467+00:00", "meta": {"OBJECT_NAME": "COSMOS 2251 DEB", "OBJECT_ID": "1993-036AXM", "EPOCH": "2025-12-06T21:38:56.903136", "MEAN_MOTION": 15.00909589, "ECCENTRICITY": 0.00890187, "INCLINATION": 74.0309, "RA_OF_ASC_NODE": 205.9114, "ARG_OF_PERICENTER": 286.8649, "MEAN_ANOMALY": 72.279, "EPHEMERIS_TYPE": 0, "CLASSIFICATION_TYPE": "U", "NORAD_CAT_ID": 36050, "ELEMENT_SET_NO": 999, "REV_AT_EPOCH": 66947, "BSTAR": 0.00085100321, "MEAN_MOTION_DOT": 0.00011772, "MEAN_MOTION_DDOT": 0}, "tle": {"line1": "1 36050U 93036AXM 25340.90204749  .00011772  00000+0  85100-3 0  9998", "line2": "2 36050  74.0309 205.9114 0089018 286.8649  72.2790 15.00909589669475"}}, "geometry": {"type": "Point", "coordinates": [-49.416497686845865, 73.25853667429617]}}, {"type": "Feature", "properties": {"norad_id": 36053, "name": "COSMOS 2251 DEB", "group": "cosmos-2251-debris", "lat": -40.38591239694952, "lon": 146.65909052383952, "alt_km": 729.6826689444579, "timestamp": "2025-12-08T10:52:03.345501+00:00", "meta": {"OBJECT_NAME": "COSMOS 2251 DEB", "OBJECT_ID": "1993-036AXQ", "EPOCH": "2025-12-07T18:35:05.079840", "MEAN_MOTION": 14.57073871, "ECCENTRICITY": 0.00329405, "INCLINATION": 73.8696, "RA_OF_ASC_NODE": 162.2116, "ARG_OF_PERICENTER": 112.9902, "MEAN_ANOMALY": 247.4742, "EPHEMERIS_TYPE": 0, "CLASSIFICATION_TYPE": "U", "NORAD_CAT_ID": 36053, "ELEMENT_SET_NO": 999, "REV_AT_EPOCH": 87372, "BSTAR": 0.0027216261, "MEAN_MOTION_DOT": 0.0001234, "MEAN_MOTION_DDOT": 0}, "tle": {"line1": "1 36053U 93036AXQ 25341.77436435  .00012340  00000+0  27216-2 0  9991", "line2": "2 36053  73.8696 162.2116 0032940 112.9902 247.4742 14.57073871873729"}}, "geometry": {"type": "Point", "coordinates": [146.65909052383952, -40.38591239694952]}}, {"type": "Feature", "properties": {"norad_id": 36058, "name": "COSMOS 2251 DEB", "group": "cosmos-2251-debris", "lat": 56.413372318209575, "lon": 67.18722268480057, "alt_km": 706.0238086572026, "timestamp": "2025-12-08T10:52:03.345513+00:00", "meta": {"OBJECT_NAME": "COSMOS 2251 DEB", "OBJECT_ID": "1993-036AXV", "EPOCH": "2025-12-07T13:11:34.398816", "MEAN_MOTION": 14.58652352, "ECCENTRICITY": 0.00449501, "INCLINATION": 74.0237, "RA_OF_ASC_NODE": 43.35, "ARG_OF_PERICENTER": 178.9506, "MEAN_ANOMALY": 181.1762, "EPHEMERIS_TYPE": 0, "CLASSIFICATION_TYPE": "U", "NORAD_CAT_ID": 36058, "ELEMENT_SET_NO": 999, "REV_AT_EPOCH": 66035, "BSTAR": 0.0010227034, "MEAN_MOTION_DOT": 4.806e-05, "MEAN_MOTION_DDOT": 0}, "tle": {"line1": "1 36058U 93036AXV 25341.54970369  .00004806  00000+0  10227-2 0  9992", "line2": "2 36058  74.0237  43.3500 0044950 178.9506 181.1762 14.58652352660357"}}, "geometry": {"type": "Point", "coordinates": [67.18722268480057, 56.413372318209575]}}, {"type": "Feature", "properties": {"norad_id": 36060, "name": "COSMOS 2251 DEB", "group": "cosmos-2251-debris", "lat": -38.567654624550435, "lon": 75.7157728686359, "alt_km": 763.3282663571845, "timestamp": "2025-12-08T10:52:03.345524+00:00", "meta": {"OBJECT_NAME": "COSMOS 2251 DEB", "OBJECT_ID": "1993-036AXX", "EPOCH": "2025-12-07T23:51:28.095552", "MEAN_MOTION": 14.41982132, "ECCENTRICITY": 0.00151092, "INCLINATION": 74.0293, "RA_OF_ASC_NODE": 243.3663, "ARG_OF_PERICENTER": 340.7891, "MEAN_ANOMALY": 19.2693, "EPHEMERIS_TYPE": 0, "CLASSIFICATION_TYPE": "U", "NORAD_CAT_ID": 36060, "ELEMENT_SET_NO": 999, "REV_AT_EPOCH": 84941, "BSTAR": 0.00055050002, "MEAN_MOTION_DOT": 1.781e-05, "MEAN_MOTION_DDOT": 0}, "tle": {"line1": "1 36060U 93036AXX 25341.99407518  .00001781  00000+0  55050-3 0  9998", "line2": "2 36060  74.0293 243.3663 0015109 340.7891  19.2693 14.41982132849418"}}, "geometry": {"type": "Point", "coordinates": [75.7157728686359, -38.567654624550435]}}, {"type": "Feature", "properties": {"norad_id": 36061, "name": "COSMOS 2251 DEB", "group": "cosmos-2251-debris", "lat": 9.317249268477333, "lon": -175.08558718875346, "alt_km": 772.9663187453616, "timestamp": "2025-12-08T10:52:03.345534+00:00", "meta": {"OBJECT_NAME": "COSMOS 2251 DEB", "OBJECT_ID": "1993-036AXY", "EPOCH": "2025-12-06T19:33:46.533024", "MEAN_MOTION": 14.3369459, "ECCENTRICITY": 0.00368493, "INCLINATION": 74.0244, "RA_OF_ASC_NODE": 10.6045, "ARG_OF_PERICENTER": 100.4465, "MEAN_ANOMALY": 260.0843, "EPHEMERIS_TYPE": 0, "CLASSIFICATION_TYPE": "U", "NORAD_CAT_ID": 36061, "ELEMENT_SET_NO": 999, "REV_AT_EPOCH": 65019, "BSTAR": 0.00049752015, "MEAN_MOTION_DOT": 1.365e-05, "MEAN_MOTION_DDOT": 0}, "tle": {"line1": "1 36061U 93036AXY 25340.81512191  .00001365  00000+0  49752-3 0  9993", "line2": "2 36061  74.0244  10.6045 0036849 100.4465 260.0843 14.33694590650193"}}, "geometry": {"type": "Point", "coordinates": [-175.08558718875346, 9.317249268477333]}}]}